[
    {
        "CCSDS_OMM_VERS": "3.0",
        "COMMENT": "GENERATED VIA SPACE-TRACK.ORG API",
        "CREATION_DATE": "2025-03-02T18:08:23",
        "ORIGINATOR": "18 SPCS",
        "OBJECT_NAME": "GALILEO 10 (206)",
        "OBJECT_ID": "2015-045B",
        "CENTER_NAME": "EARTH",
        "REF_FRAME": "TEME",
        "TIME_SYSTEM": "UTC",
        "MEAN_ELEMENT_THEORY": "SGP4",
        "EPOCH": "2025-03-01T16:04:49.287360",
        "MEAN_MOTION": "1.70473511",
        "ECCENTRICITY": "0.00039470",
        "INCLINATION": "55.1094",
        "RA_OF_ASC_NODE": "234.6492",
        "ARG_OF_PERICENTER": "50.8064",
        "MEAN_ANOMALY": "309.1899",
        "EPHEMERIS_TYPE": "0",
        "CLASSIFICATION_TYPE": "U",
        "NORAD_CAT_ID": "40890",
        "ELEMENT_SET_NO": "999",
        "REV_AT_EPOCH": "5898",
        "BSTAR": "0.00000000000000",
        "MEAN_MOTION_DOT": "0.00000049",
        "MEAN_MOTION_DDOT": "0.0000000000000",
        "SEMIMAJOR_AXIS": "29600.377",
        "PERIOD": "844.706",
        "APOAPSIS": "23233.925",
        "PERIAPSIS": "23210.558",
        "OBJECT_TYPE": "PAYLOAD",
        "RCS_SIZE": "LARGE",
        "COUNTRY_CODE": "ESA",
        "LAUNCH_DATE": "2015-09-11",
        "SITE": "FRGUI",
        "DECAY_DATE": null,
        "FILE": "4657142",
        "GP_ID": "282085324",
        "TLE_LINE0": "0 GALILEO 10 (206)",
        "TLE_LINE1": "1 40890U 15045B   25060.67001490  .00000049  00000-0  00000-0 0  9999",
        "TLE_LINE2": "2 40890  55.1094 234.6492 0003947  50.8064 309.1899  1.70473511 58981"
    }
]